     3.04           N: GNSS NAV DATA    M: MIXED            RINEX VERSION / TYPE
ssrcrin-15.6.1x                         20250101 184500 UTC PGM / RUN BY / DATE 
    18                                                      LEAP SECONDS        
                                                            END OF HEADER       
E15 2025 01 01 18 40 00-1.485143438913E-04-2.231104190287E-12 0.000000000000E+00
     3.600000000000E+01 1.604687500000E+02 2.499746981638E-09 2.882496297575E+00
     7.485970854759E-06 4.363692132756E-04 1.806765794754E-06 5.440612812042E+03
     3.264000000000E+05-3.166496753693E-08-1.776062916561E+00-1.862645149231E-09
     9.996430486083E-01 3.229687500000E+02-1.182285534207E+00-5.566303287446E-09
     1.871506527187E-10 2.580000000000E+02 2.347000000000E+03
     3.120000000000E+00 0.000000000000E+00 3.026798367500E-09 0.000000000000E+00
     3.271400000000E+05
E27 2025 01 01 18 40 00-5.450817989185E-04-9.904965736496E-12 0.000000000000E+00
     3.600000000000E+01-2.087500000000E+01 3.530504202528E-09 2.441997848109E+00
    -9.965151548386E-07 3.201928921044E-04 6.329268217087E-06 5.440604562759E+03
     3.264000000000E+05-9.499490261078E-08 2.413469465091E+00-1.676380634308E-08
     9.641965186781E-01 2.078125000000E+02 5.557518083107E-01-5.589161382435E-09
    -5.450227023832E-10 2.580000000000E+02 2.347000000000E+03
     3.120000000000E+00 0.000000000000E+00-2.328306436539E-10 0.000000000000E+00
     3.271400000000E+05
S36 2025 01 01 18 52 32 0.000000000000E+00 0.000000000000E+00 3.271610000000E+05
     4.200368800000E+04 0.000000000000E+00 0.000000000000E+00 6.300000000000E+01
     3.674846960000E+03 0.000000000000E+00 0.000000000000E+00 3.276700000000E+04
     0.000000000000E+00 0.000000000000E+00 0.000000000000E+00 8.600000000000E+01
S23 2025 01 01 18 53 20 0.000000000000E+00 0.000000000000E+00 3.272130000000E+05
     3.866796400000E+04 0.000000000000E+00 0.000000000000E+00 6.300000000000E+01
     1.681330800000E+04 0.000000000000E+00 0.000000000000E+00 3.276700000000E+04
     0.000000000000E+00 0.000000000000E+00 0.000000000000E+00 1.500000000000E+01
S36 2025 01 01 18 55 12 0.000000000000E+00 0.000000000000E+00 3.273130000000E+05
     4.200368800000E+04 0.000000000000E+00 0.000000000000E+00 6.300000000000E+01
     3.674846960000E+03 0.000000000000E+00 0.000000000000E+00 3.276700000000E+04
     0.000000000000E+00 0.000000000000E+00 0.000000000000E+00 8.700000000000E+01
S23 2025 01 01 18 55 28 0.000000000000E+00 0.000000000000E+00 3.273380000000E+05
     3.866796400000E+04 0.000000000000E+00 0.000000000000E+00 6.300000000000E+01
     1.681330800000E+04 0.000000000000E+00 0.000000000000E+00 3.276700000000E+04
     0.000000000000E+00 0.000000000000E+00 0.000000000000E+00 1.600000000000E+01
S23 2025 01 01 18 57 36 0.000000000000E+00 0.000000000000E+00 3.274650000000E+05
     3.866796400000E+04 0.000000000000E+00 0.000000000000E+00 6.300000000000E+01
     1.681330800000E+04 0.000000000000E+00 0.000000000000E+00 3.276700000000E+04
     0.000000000000E+00 0.000000000000E+00 0.000000000000E+00 1.700000000000E+01
S36 2025 01 01 18 57 52 0.000000000000E+00 0.000000000000E+00 3.274720000000E+05
     4.200368800000E+04 0.000000000000E+00 0.000000000000E+00 6.300000000000E+01
     3.674846960000E+03 0.000000000000E+00 0.000000000000E+00 3.276700000000E+04
     0.000000000000E+00 0.000000000000E+00 0.000000000000E+00 8.800000000000E+01
S23 2025 01 01 18 59 44 0.000000000000E+00 0.000000000000E+00 3.275920000000E+05
     3.866796400000E+04 0.000000000000E+00 0.000000000000E+00 6.300000000000E+01
     1.681330800000E+04 0.000000000000E+00 0.000000000000E+00 3.276700000000E+04
     0.000000000000E+00 0.000000000000E+00 0.000000000000E+00 1.800000000000E+01
